{"type": "FeatureCollection", "features": [{"type": "Feature", "properties": {"name": "İstanbul", "osm_id": 223474}, "geometry": {"type": "Polygon", "coordinates": [[[27.9708481, 41.0998253], [27.9765022, 41.0985236], [27.9774356, 41.0994534], [27.9779506, 41.0989925], [27.9782617, 41.0970278], [27.977507, 41.0965996], [27.9767218, 41.0944267], [27.9769957, 41.092217], [27.9751854, 41.0902676], [27.9747685, 41.0876566], [27.9757985, 41.0864097], [27.9788097, 41.0845467], [27.9789505, 41.0835969], [27.9784407, 41.0822078], [27.9750011, 41.0796342], [27.9746651, 41.0779069], [27.9753971, 41.0756632], [27.9759765, 41.0751618], [27.9810104, 41.076032], [27.9819775, 41.0749845], [27.9810834, 41.072064], [27.9823065, 41.0714493], [27.9839906, 41.0718535], [27.9836481, 41.0709875], [27.9819694, 41.0698481], [27.9801792, 41.0677771], [27.9757529, 41.0661404], [27.9753475, 41.0656144], [27.9775137, 41.0624535], [27.9772923, 41.0609139], [27.9787849, 41.0575998], [27.9773923, 41.0516837], [27.9781295, 41.049336], [27.9765272, 41.048056], [27.9765255, 41.047313], [27.9739172, 41.043426], [27.9741871, 41.0420719], [27.9768929, 41.0420891], [27.9765689, 41.0438713], [27.9803968, 41.0436561], [27.9806113, 41.0411918], [27.9816959, 41.0401358], [27.984444, 41.0432059], [27.9859367, 41.0440022], [27.9922982, 41.042841], [27.9943246, 41.0411451], [27.994709, 41.0387642], [27.9953149, 41.0381139], [27.9961626, 41.039105], [28.0053767, 41.0401005], [28.0064131, 41.0369205], [28.0057943, 41.0334206], [28.0075828, 41.0320583], [28.0132167, 41.0353853], [28.0134334, 41.0342521], [28.0105266, 41.0324066], [28.0110985, 41.0309506], [28.3203487, 40.7545929], [28.6886863, 40.75773], [29.0582449, 40.7679112], [29.3157266, 40.7376735], [29.316089, 40.787562], [29.3273099, 40.8047062], [29.3391181, 40.8097985], [29.3417451, 40.8122741], [29.3420268, 40.8138552], [29.3427362, 40.8139282], [29.3498691, 40.8244937], [29.3566619, 40.8210011], [29.3622896, 40.8164292], [29.3630403, 40.817093], [29.3642175, 40.8189761], [29.3636589, 40.8196612], [29.3643388, 40.8230032], [29.3634146, 40.8236905], [29.3641731, 40.8271147], [29.3652749, 40.827882], [29.3662767, 40.8294761], [29.3663369, 40.8311551], [29.36935, 40.8334827], [29.3711445, 40.8377785], [29.3682668, 40.8399838], [29.3629752, 40.8490411], [29.3616071, 40.8491162], [29.3629726, 40.8518765], [29.3680846, 40.855846], [29.3677169, 40.8562327], [29.366085, 40.8559704], [29.3644095, 40.8590876], [29.3666626, 40.8592742], [29.3672366, 40.8625442], [29.3695272, 40.8641103], [29.3711919, 40.8638663], [29.3728495, 40.8653511], [29.3731107, 40.8666904], [29.3746358, 40.8683166], [29.3793144, 40.8722799], [29.396453, 40.876355], [29.3997386, 40.8777976], [29.4012574, 40.8790837], [29.4035705, 40.8797887], [29.4069332, 40.8800688], [29.4079738, 40.8795683], [29.4099318, 40.8797872], [29.4140375, 40.8791754], [29.4132882, 40.8811364], [29.4138443, 40.8825336], [29.4135547, 40.886492], [29.4154339, 40.8891208], [29.4150258, 40.8953694], [29.4166207, 40.898283], [29.4220078, 40.8992227], [29.4356561, 40.8993062], [29.4421303, 40.9004758], [29.4450029, 40.9024224], [29.4450545, 40.9031744], [29.4468593, 40.9054887], [29.4480006, 40.9060737], [29.4495664, 40.9061379], [29.4534255, 40.9091901], [29.4564576, 40.9126028], [29.4552662, 40.9129768], [29.4540667, 40.9152152], [29.452107, 40.9172908], [29.450264, 40.9153664], [29.4497593, 40.9160334], [29.4478329, 40.9156253], [29.4469191, 40.9167552], [29.4437379, 40.9161315], [29.4436276, 40.9178015], [29.4417412, 40.9200553], [29.4419864, 40.9226802], [29.4411679, 40.9276389], [29.4421107, 40.9331183], [29.4419688, 40.9336088], [29.438274, 40.9339374], [29.4381097, 40.9345453], [29.4395214, 40.9364854], [29.4370782, 40.9381046], [29.4372225, 40.9388202], [29.4389422, 40.9397533], [29.4388309, 40.9411432], [29.4430685, 40.944275], [29.4519701, 40.9475126], [29.4543278, 40.951807], [29.4549894, 40.9542659], [29.4577739, 40.954286], [29.4603496, 40.9531648], [29.4632713, 40.950964], [29.4666221, 40.9516416], [29.4699567, 40.9516608], [29.4696772, 40.9533098], [29.4708896, 40.9542254], [29.4733035, 40.9575069], [29.4756102, 40.9594596], [29.4772196, 40.9593461], [29.4790309, 40.9579604], [29.4797393, 40.9605856], [29.4790309, 40.9619014], [29.4828844, 40.9626274], [29.4844878, 40.9650425], [29.4849925, 40.9675397], [29.4847298, 40.9687602], [29.4812186, 40.9696018], [29.4841718, 40.9752001], [29.4894451, 40.9768514], [29.4956542, 40.981508], [29.5008109, 40.9867665], [29.5047605, 40.9870092], [29.5059007, 40.9878684], [29.5063162, 40.9894792], [29.5054282, 40.9944435], [29.5067024, 40.9952451], [29.5053575, 40.9976425], [29.5062518, 40.9994234], [29.5054562, 41.000198], [29.5025819, 41.0004531], [29.5017457, 41.0009537], [29.4999325, 41.0026541], [29.4994712, 41.0037067], [29.4974386, 41.0043464], [29.4931495, 41.0081727], [29.4928193, 41.0099004], [29.4936669, 41.0123696], [29.49548, 41.0147011], [29.4978726, 41.0157616], [29.4996757, 41.0176734], [29.4997716, 41.0190481], [29.4991814, 41.0200491], [29.5008123, 41.0220674], [29.5001023, 41.026403], [29.5018537, 41.0319922], [29.5028489, 41.0320641], [29.5053291, 41.0336577], [29.5079255, 41.0362312], [29.5079668, 41.0401519], [29.5086371, 41.041655], [29.5098677, 41.0416877], [29.5115335, 41.0400558], [29.5127049, 41.0422962], [29.5175406, 41.0440465], [29.5208967, 41.0415777], [29.5224649, 41.042129], [29.5235461, 41.0407742], [29.5231215, 41.0399787], [29.5248297, 41.0375592], [29.5272179, 41.0362283], [29.5257421, 41.0342647], [29.5270863, 41.0337893], [29.5270694, 41.0322292], [29.5281986, 41.0316644], [29.530487, 41.0319213], [29.5303126, 41.0334078], [29.5319957, 41.0341101], [29.5373054, 41.0331447], [29.5367735, 41.0354627], [29.5386128, 41.0368198], [29.5424802, 41.0370316], [29.5435665, 41.0355389], [29.5444479, 41.0354441], [29.5454849, 41.037078], [29.5467789, 41.0370303], [29.5507902, 41.0353979], [29.5518154, 41.0359204], [29.5534896, 41.0388933], [29.5567856, 41.0382356], [29.5580567, 41.0392344], [29.5614128, 41.0378613], [29.5665838, 41.034576], [29.5705148, 41.0331907], [29.5716356, 41.0335208], [29.5735003, 41.0327495], [29.5743591, 41.0337826], [29.5738133, 41.0347137], [29.5745194, 41.0353304], [29.5748491, 41.0344288], [29.5762833, 41.0343726], [29.5779985, 41.0325632], [29.5888435, 41.0313715], [29.5923546, 41.0302994], [29.5935998, 41.028816], [29.5973308, 41.0288959], [29.6002632, 41.026565], [29.5997643, 41.0256936], [29.5988095, 41.0252566], [29.5981765, 41.0219541], [29.5971894, 41.0205133], [29.5975756, 41.0195581], [29.5997223, 41.0179866], [29.6011376, 41.0133977], [29.6018565, 41.0124748], [29.6010625, 41.0119891], [29.6013016, 41.0109379], [29.6002793, 41.0108557], [29.6001291, 41.0104428], [29.6002364, 41.0088884], [29.6010196, 41.0076335], [29.6001076, 41.0046297], [29.5989275, 41.0033666], [29.6001573, 41.0035061], [29.6034227, 41.0070053], [29.605375, 41.0054929], [29.6090915, 41.0074019], [29.610175, 41.0063767], [29.6112442, 41.0003707], [29.6103859, 40.9924675], [29.6068668, 40.9907831], [29.6048713, 40.9861507], [29.605, 40.9839478], [29.6069312, 40.9812588], [29.6109223, 40.9799791], [29.6136477, 40.9812279], [29.6143234, 40.9799872], [29.6196556, 40.9781566], [29.6210235, 40.9762167], [29.633646, 40.9709717], [29.6419716, 40.9708745], [29.6465635, 40.9701616], [29.6483499, 40.9687075], [29.6494978, 40.9685617], [29.6517777, 40.9694042], [29.6521184, 40.968665], [29.6543688, 40.9683186], [29.6553022, 40.9672655], [29.6556294, 40.9640614], [29.6574211, 40.9639075], [29.6589017, 40.9633404], [29.6587998, 40.9628178], [29.6601248, 40.9626679], [29.6601784, 40.9632674], [29.6623349, 40.9633566], [29.6630752, 40.9619185], [29.6638584, 40.9617767], [29.6651673, 40.9634335], [29.6665406, 40.9637252], [29.6670855, 40.9634112], [29.6686649, 40.964029], [29.6687937, 40.9649607], [29.6716958, 40.966427], [29.6718621, 40.9647986], [29.6731979, 40.9644948], [29.673906, 40.9650295], [29.6747911, 40.9644584], [29.6766905, 40.9644098], [29.6791363, 40.966022], [29.6834981, 40.9699632], [29.6829182, 40.970915], [29.6833044, 40.9710446], [29.6838077, 40.9770912], [29.6860134, 40.9795984], [29.6876174, 40.9799264], [29.6896344, 40.9796308], [29.6910721, 40.9813398], [29.6907127, 40.9823684], [29.6883792, 40.9839073], [29.6894038, 40.9847374], [29.6910154, 40.9845285], [29.6920094, 40.9887823], [29.7008315, 40.990049], [29.7031255, 40.9946586], [29.7062573, 40.9961338], [29.7106361, 41.0000307], [29.7116573, 41.0004562], [29.7120523, 41.0011319], [29.7116905, 41.002111], [29.7180605, 41.002897], [29.7182134, 41.0052703], [29.7194809, 41.0077415], [29.7189464, 41.0084263], [29.7174335, 41.0097148], [29.7142408, 41.0111673], [29.7134762, 41.0127571], [29.7100138, 41.0116086], [29.7070741, 41.0126125], [29.7051465, 41.0156243], [29.7045851, 41.0161259], [29.7022247, 41.0163039], [29.6985984, 41.0201571], [29.6971607, 41.0210152], [29.6964097, 41.0226179], [29.6961522, 41.0244148], [29.6975469, 41.0256937], [29.6996283, 41.0266325], [29.6993708, 41.0270858], [29.6998891, 41.0283644], [29.7058285, 41.0286119], [29.7057795, 41.0298846], [29.7044336, 41.0317702], [29.7044201, 41.0344787], [29.7072673, 41.0319743], [29.7137447, 41.0299411], [29.7181463, 41.0275067], [29.7188115, 41.0280085], [29.718318, 41.0285103], [29.71879, 41.029352], [29.7175669, 41.029174], [29.7171378, 41.029692], [29.7184038, 41.0309707], [29.7180304, 41.0317493], [29.7214007, 41.0311637], [29.7230435, 41.0315198], [29.7235751, 41.0325408], [29.7262573, 41.0345722], [29.7269378, 41.0366832], [29.7288792, 41.0388905], [29.7298193, 41.0411028], [29.7324291, 41.0421757], [29.7360076, 41.0413404], [29.7365355, 41.0404878], [29.7363424, 41.0371376], [29.7369003, 41.0356647], [29.7364282, 41.0348392], [29.7375071, 41.0346416], [29.73881, 41.0358427], [29.7406554, 41.035956], [29.7421253, 41.0350254], [29.7426057, 41.0341602], [29.7449933, 41.0347657], [29.746397, 41.0343493], [29.7473717, 41.0333178], [29.7506118, 41.0319905], [29.7536909, 41.0277333], [29.7563504, 41.026561], [29.7590232, 41.0272396], [29.7611368, 41.0271748], [29.7645592, 41.0268349], [29.7649673, 41.0254778], [29.7712369, 41.0252479], [29.7783629, 41.0273877], [29.7804656, 41.0254276], [29.7819955, 41.0255956], [29.7849979, 41.023886], [29.785734, 41.0215493], [29.7899605, 41.0202581], [29.7914994, 41.0192424], [29.7934091, 41.02006], [29.7942568, 41.0190777], [29.7959304, 41.0199628], [29.8002756, 41.0207076], [29.8042774, 41.01955], [29.8084416, 41.0196776], [29.8086226, 41.0201895], [29.8110044, 41.0180929], [29.8115623, 41.0162877], [29.8138047, 41.0146239], [29.8160899, 41.0144663], [29.8172593, 41.0151139], [29.8192679, 41.0149915], [29.8227533, 41.0132347], [29.8243189, 41.0141587], [29.8265547, 41.0132711], [29.8287713, 41.0148873], [29.8320436, 41.0146768], [29.8347909, 41.0158392], [29.8340821, 41.0163849], [29.8350048, 41.0173887], [29.8361635, 41.0177611], [29.8368806, 41.0173766], [29.8394794, 41.0184287], [29.8409454, 41.0208051], [29.8418498, 41.020999], [29.8453259, 41.0202219], [29.8482871, 41.0227797], [29.8484158, 41.0235568], [29.8507333, 41.0249652], [29.8518598, 41.0268268], [29.8545742, 41.0283808], [29.857986, 41.0285589], [29.8622285, 41.0308556], [29.8626423, 41.0326056], [29.8635864, 41.033253], [29.8637715, 41.0355016], [29.8678136, 41.0375584], [29.8684617, 41.0402864], [29.8708268, 41.0410528], [29.8721051, 41.0406335], [29.877963, 41.0405202], [29.8791861, 41.0407468], [29.8804294, 41.0419671], [29.8800015, 41.0469693], [29.8813223, 41.0494249], [29.8803929, 41.0511749], [29.8816109, 41.0524389], [29.8809028, 41.053612], [29.8810408, 41.054389], [29.8824692, 41.0560149], [29.8869974, 41.0581555], [29.8879516, 41.0598738], [29.8871367, 41.0631993], [29.8894398, 41.0628339], [29.8900545, 41.0634009], [29.8914465, 41.0625703], [29.8928225, 41.0639267], [29.8917828, 41.0675748], [29.8924255, 41.069686], [29.8920929, 41.0702684], [29.8927045, 41.0707537], [29.8888534, 41.0757433], [29.8889046, 41.0776029], [29.8879838, 41.0776447], [29.8869006, 41.0804381], [29.8876083, 41.0802084], [29.8892712, 41.0823596], [29.8909982, 41.0827078], [29.8905694, 41.0833624], [29.8914921, 41.085004], [29.8925543, 41.0856752], [29.8913741, 41.0868963], [29.8922324, 41.0870418], [29.8921895, 41.0881416], [29.8929191, 41.0896941], [29.8915028, 41.0929597], [29.9003367, 41.0908989], [29.9038088, 41.0917641], [29.9036264, 41.0914407], [29.9072455, 41.0906443], [29.9086075, 41.0890276], [29.9107692, 41.0879805], [29.9113512, 41.0882143], [29.9109971, 41.0889987], [29.910332, 41.0891038], [29.9115443, 41.0896375], [29.9118086, 41.0889563], [29.9128747, 41.0889987], [29.9131751, 41.0898073], [29.9141589, 41.0888244], [29.9151599, 41.0887723], [29.9142051, 41.0893464], [29.91413, 41.0897669], [29.9146664, 41.0898801], [29.9168631, 41.0886483], [29.9173579, 41.0890509], [29.9189168, 41.0883118], [29.9227387, 41.0879647], [29.9241521, 41.0869681], [29.9278371, 41.0864483], [29.9277341, 41.0871469], [29.9283242, 41.0869124], [29.9289909, 41.0877125], [29.9313899, 41.087786], [29.9335058, 41.0868003], [29.9361086, 41.0868776], [29.9384585, 41.0860364], [29.94109, 41.0840125], [29.9414134, 41.0840012], [29.9413276, 41.0850202], [29.9439347, 41.0850202], [29.9439347, 41.0836454], [29.9454582, 41.0826831], [29.9504646, 41.0820758], [29.95152, 41.0810899], [29.9545133, 41.0800952], [29.9542357, 41.0821156], [29.9550497, 41.0837101], [29.9565625, 41.0834918], [29.9576783, 41.0840012], [29.957056, 41.0845511], [29.9578214, 41.0855355], [29.9578071, 41.0866213], [29.9561217, 41.0894418], [29.9585879, 41.0923244], [29.9588048, 41.0944648], [29.9571262, 41.0952417], [29.9549532, 41.0987095], [29.9489605, 41.0998582], [29.9460015, 41.0993006], [29.9435943, 41.0974652], [29.9395251, 41.0974483], [29.9358378, 41.0984051], [29.9318218, 41.0980951], [29.9285222, 41.0969988], [29.9265754, 41.0985802], [29.9183638, 41.0992309], [29.9162324, 41.1000831], [29.9150097, 41.1010461], [29.915632, 41.1029702], [29.914999, 41.1040373], [29.9166942, 41.10487], [29.9149078, 41.1052783], [29.9141782, 41.1049266], [29.9144894, 41.1058603], [29.9134433, 41.1055127], [29.913098, 41.1064095], [29.9130249, 41.1077197], [29.9141461, 41.1089686], [29.9149132, 41.1084553], [29.915235, 41.1088029], [29.9149185, 41.1092596], [29.9157017, 41.1099912], [29.9144465, 41.1110057], [29.9150956, 41.1119434], [29.914366, 41.1132205], [29.9146771, 41.1139521], [29.9133575, 41.114239], [29.9139208, 41.1150231], [29.91207, 41.1160456], [29.9114513, 41.1183865], [29.9138725, 41.118632], [29.9144005, 41.1195888], [29.9140549, 41.1200505], [29.9144608, 41.1200708], [29.913596, 41.1208187], [29.9117048, 41.1190109], [29.9096302, 41.1194186], [29.910114, 41.1200655], [29.9095273, 41.1210487], [29.9121276, 41.1226377], [29.9145913, 41.1259019], [29.9151222, 41.135992], [29.9140978, 41.1403423], [29.918147, 41.14146], [29.9380986, 41.342], [29.9146858, 41.343], [29.8822197, 41.343], [29.8637574, 41.348], [29.8504707, 41.351], [29.8161244, 41.357], [29.7968776, 41.359], [29.7803302, 41.36], [29.7469435, 41.361], [29.7287397, 41.363], [29.7152476, 41.367], [29.6942666, 41.372], [29.6736443, 41.376], [29.6492596, 41.3793698], [29.6383586, 41.3803703], [29.6149318, 41.3813709], [29.5840531, 41.3803703], [29.5730723, 41.3793698], [29.5677593, 41.3803703], [29.5463286, 41.3863737], [29.5177429, 41.392377], [29.4763369, 41.4033832], [29.4579481, 41.4073854], [29.4391999, 41.4103871], [29.4199372, 41.4123882], [29.3964989, 41.4133888], [29.3801668, 41.4133888], [29.3618891, 41.4193922], [29.3438693, 41.424395], [29.3254745, 41.4283972], [29.3067202, 41.4313989], [29.2874513, 41.4334], [29.2640055, 41.4344006], [29.2010679, 41.4323994], [29.1834723, 41.4384028], [29.1654473, 41.4434056], [29.1470472, 41.4474079], [29.1282875, 41.4504095], [29.0805819, 41.4554123], [29.0571282, 41.4564129], [29.0278991, 41.4564129], [29.0057042, 41.4624163], [28.9859027, 41.4664185], [28.9728429, 41.4704208], [28.9573869, 41.474423], [28.9377368, 41.4824275], [28.9237486, 41.4874303], [28.8959052, 41.4954348], [28.8703987, 41.5044398], [28.8329645, 41.515446], [28.8098731, 41.5254516], [28.7863069, 41.5334561], [28.7715634, 41.5374584], [28.7531366, 41.5414606], [28.7196882, 41.5464634], [28.6985365, 41.5564691], [28.6926724, 41.558], [28.6633491, 41.569], [28.6431821, 41.575], [28.6348232, 41.578], [28.5943278, 41.595], [28.5301177, 41.619], [28.4363383, 41.658], [28.4175056, 41.669], [28.4151633, 41.671], [28.1476821, 41.5918611], [28.1470156, 41.5910055], [28.143825, 41.5907192], [28.1435502, 41.5895411], [28.143872, 41.5887868], [28.1453576, 41.5860397], [28.1472484, 41.5841202], [28.152729, 41.5803994], [28.1544399, 41.5796223], [28.155456, 41.57987], [28.1552553, 41.5794818], [28.1535816, 41.5793053], [28.1508779, 41.5802844], [28.1463718, 41.5832858], [28.1417584, 41.5820018], [28.1391527, 41.5820263], [28.1368983, 41.5805733], [28.1363618, 41.5784465], [28.1349349, 41.5782378], [28.1329476, 41.5764275], [28.1329018, 41.5754432], [28.1334677, 41.5749333], [28.1322849, 41.5740001], [28.1305253, 41.5739038], [28.1307185, 41.5728765], [28.1283367, 41.5731574], [28.1287336, 41.5719775], [28.1276286, 41.5713996], [28.1255901, 41.5681086], [28.1242481, 41.5681813], [28.1231071, 41.5670807], [28.1241366, 41.5663536], [28.12294, 41.5644562], [28.1208389, 41.5631298], [28.1179902, 41.5625885], [28.1185627, 41.5605387], [28.1189925, 41.560325], [28.1223849, 41.5607585], [28.1233907, 41.5601454], [28.1237603, 41.5570432], [28.1246292, 41.5567418], [28.124876, 41.5556822], [28.1247411, 41.5540716], [28.1236625, 41.5535608], [28.1246567, 41.5523899], [28.1220281, 41.5517636], [28.1209016, 41.5519884], [28.1188631, 41.5496921], [28.1197858, 41.54856], [28.1215874, 41.5488333], [28.120687, 41.5476446], [28.1224251, 41.5471709], [28.1225538, 41.5466891], [28.1213844, 41.5456131], [28.1217277, 41.54477], [28.1206012, 41.5441678], [28.1213426, 41.5428488], [28.1187166, 41.5416818], [28.1165007, 41.5425226], [28.1159019, 41.5417587], [28.1168461, 41.5411324], [28.1161916, 41.540241], [28.1165671, 41.5398957], [28.117876, 41.539719], [28.121438, 41.5369886], [28.1202793, 41.5352459], [28.1211376, 41.5347801], [28.1202432, 41.5337083], [28.1207943, 41.5315033], [28.1198002, 41.5294475], [28.1164813, 41.5267967], [28.1165465, 41.5261476], [28.1141351, 41.5239586], [28.1113715, 41.5224193], [28.1095835, 41.520317], [28.105613, 41.5181054], [28.1046152, 41.5157436], [28.1028919, 41.5155354], [28.1022967, 41.5167105], [28.1011605, 41.5159685], [28.0973759, 41.5151332], [28.0959677, 41.5133013], [28.0956582, 41.5120456], [28.0924272, 41.5092361], [28.0919122, 41.5096218], [28.0866766, 41.5087219], [28.082664, 41.509204], [28.0812263, 41.5085452], [28.0789104, 41.5089587], [28.0761886, 41.5076325], [28.0754757, 41.5065848], [28.076334, 41.5052349], [28.0772996, 41.5049618], [28.0776214, 41.5033226], [28.0767631, 41.5022781], [28.0752611, 41.5017638], [28.0739472, 41.4983823], [28.0725204, 41.4971493], [28.0717635, 41.4954478], [28.0709481, 41.4947567], [28.0711841, 41.4934067], [28.0729427, 41.4929458], [28.0786008, 41.4931414], [28.0813229, 41.49106], [28.0853471, 41.4900769], [28.0867059, 41.4881014], [28.0894875, 41.4854985], [28.0903995, 41.4830471], [28.093586, 41.4800571], [28.0967188, 41.4782566], [28.0987143, 41.4781199], [28.0996426, 41.4764944], [28.1027643, 41.4752341], [28.1049293, 41.4756726], [28.1044904, 41.4748018], [28.1049049, 41.4740766], [28.1063318, 41.4733933], [28.1064498, 41.4692291], [28.1085734, 41.4682599], [28.1116855, 41.4654104], [28.1127262, 41.4596296], [28.1118889, 41.4541597], [28.112391, 41.4491531], [28.1136382, 41.447608], [28.1133699, 41.4427023], [28.1137776, 41.4388739], [28.1124365, 41.4363725], [28.1126228, 41.4346944], [28.1110816, 41.4319092], [28.1112403, 41.4265362], [28.1130266, 41.4224721], [28.1146101, 41.4210297], [28.1161602, 41.4176233], [28.1182477, 41.4162125], [28.1205261, 41.4133484], [28.1217715, 41.4096812], [28.1200506, 41.409271], [28.1182394, 41.4079681], [28.1170821, 41.4081706], [28.1133068, 41.4070568], [28.1101298, 41.4039901], [28.107819, 41.4043703], [28.1017631, 41.4041086], [28.1015897, 41.4023803], [28.1008386, 41.4010366], [28.0989144, 41.394076], [28.0993294, 41.388405], [28.0988078, 41.3860364], [28.0948293, 41.3773964], [28.0921247, 41.3750215], [28.090539, 41.3727026], [28.0893576, 41.3695754], [28.089143, 41.3616965], [28.0885863, 41.3588209], [28.0890302, 41.3555044], [28.0878997, 41.3538681], [28.0877387, 41.3524185], [28.0890057, 41.35033], [28.0887095, 41.349552], [28.0899167, 41.3474814], [28.0897665, 41.3462732], [28.0866122, 41.3393138], [28.0850459, 41.3381136], [28.0831614, 41.3342064], [28.082119, 41.3330359], [28.0820263, 41.3305444], [28.0795005, 41.325843], [28.0804324, 41.3244661], [28.0793545, 41.3231961], [28.0798265, 41.3230219], [28.0789411, 41.3212754], [28.0778702, 41.321122], [28.0780438, 41.3144735], [28.0776395, 41.3142416], [28.0781802, 41.3119094], [28.0778294, 41.3095422], [28.0771301, 41.3083127], [28.0764326, 41.3021638], [28.0783645, 41.3010962], [28.0757511, 41.2982958], [28.0750917, 41.2967023], [28.0751896, 41.2961414], [28.076262, 41.29581], [28.0757018, 41.294262], [28.076331, 41.2919015], [28.0754173, 41.2903821], [28.0765162, 41.2894362], [28.0767309, 41.2879246], [28.0721357, 41.2849863], [28.0718148, 41.2825662], [28.0694988, 41.281077], [28.0675243, 41.2790025], [28.0653756, 41.2776846], [28.063118, 41.277723], [28.0616716, 41.2749571], [28.0589012, 41.2720031], [28.0572522, 41.2683419], [28.0578519, 41.2680061], [28.0562111, 41.2677203], [28.0561073, 41.2668975], [28.0546826, 41.267269], [28.0511627, 41.2671077], [28.0458562, 41.2653249], [28.0369425, 41.2596665], [28.0301426, 41.2561208], [28.0234011, 41.253457], [28.018926, 41.2522997], [28.0155317, 41.2522807], [28.0133667, 41.2502664], [28.0039147, 41.2440889], [28.0003812, 41.240615], [27.9996791, 41.2390965], [28.0000882, 41.2384367], [27.9988287, 41.236309], [27.9985203, 41.2335287], [27.9974718, 41.2304], [27.9983085, 41.2224189], [28.0066556, 41.2134487], [28.0106667, 41.207108], [28.0113119, 41.2050988], [28.0135434, 41.2026977], [28.0162198, 41.200823], [28.0175185, 41.1975714], [28.0183983, 41.1970466], [28.0199003, 41.1915366], [28.0201256, 41.1876895], [28.0208337, 41.1861473], [28.0207632, 41.1840943], [28.0218851, 41.1823523], [28.02334, 41.1812963], [28.0231833, 41.1790739], [28.0220014, 41.1771951], [28.0214882, 41.1739379], [28.0203509, 41.1722904], [28.0185538, 41.171512], [28.0169606, 41.171499], [28.0161238, 41.1693346], [28.0170035, 41.168107], [28.0167889, 41.1670086], [28.0129557, 41.1669367], [28.0126462, 41.164951], [28.0136239, 41.1623401], [28.0108657, 41.1618807], [28.0061942, 41.1621139], [27.9921555, 41.1615768], [27.9889744, 41.1621664], [27.9850101, 41.1621463], [27.9842795, 41.1619934], [27.9808259, 41.1573563], [27.978605, 41.1513704], [27.9807079, 41.1437923], [27.980032, 41.140819], [27.9788196, 41.1384758], [27.97839, 41.1342688], [27.9761052, 41.1279789], [27.9733564, 41.1229912], [27.9758237, 41.1233733], [27.9756439, 41.1195252], [27.974925, 41.1160658], [27.9724038, 41.1117251], [27.9757941, 41.111038], [27.9773618, 41.1114299], [27.975561, 41.1098394], [27.972873, 41.1088861], [27.9756868, 41.1075135], [27.9756868, 41.1065596], [27.973423, 41.1025417], [27.9708481, 41.0998253]]]}}, {"type": "Feature", "properties": {"name": "Kocaeli", "osm_id": 223473}, "geometry": {"type": "Polygon", "coordinates": [[[29.3157266, 40.7376735], [29.4081062, 40.7295705], [29.4422509, 40.7388491], [29.5015915, 40.7484811], [29.5247995, 40.7472187], [29.555966, 40.6980396], [29.5583037, 40.6866012], [29.5564303, 40.6839453], [29.5541975, 40.6823267], [29.5528541, 40.679726], [29.5505404, 40.6777171], [29.5504224, 40.6750807], [29.5477016, 40.6753239], [29.5477324, 40.6738182], [29.5470089, 40.6737843], [29.5470537, 40.6732649], [29.5435212, 40.6709035], [29.5369894, 40.6678668], [29.5340807, 40.667541], [29.5306599, 40.6656412], [29.5328966, 40.6634515], [29.5356753, 40.6628847], [29.5372051, 40.6598722], [29.5374834, 40.6580154], [29.5388775, 40.6557058], [29.5296293, 40.6548449], [29.526016, 40.6531751], [29.5255046, 40.6533992], [29.5254633, 40.6540529], [29.5245552, 40.6540263], [29.5229361, 40.6529838], [29.522742, 40.6523992], [29.5236541, 40.651436], [29.5220347, 40.6516608], [29.5188582, 40.6504701], [29.5167553, 40.6505189], [29.5143149, 40.6497156], [29.5117979, 40.6495961], [29.5101571, 40.6484188], [29.5102003, 40.648014], [29.5081186, 40.6470024], [29.5045613, 40.6460405], [29.502514, 40.6458697], [29.5012819, 40.6463205], [29.4989845, 40.6450265], [29.4991585, 40.6427034], [29.5000836, 40.6409291], [29.4994068, 40.6403432], [29.4985527, 40.6403327], [29.4976613, 40.6392499], [29.4985176, 40.6377227], [29.4983768, 40.6361015], [29.4990627, 40.6346107], [29.4973327, 40.6332386], [29.4965958, 40.6317049], [29.4986021, 40.6312082], [29.4993892, 40.6306024], [29.4998789, 40.6291889], [29.5000521, 40.6272678], [29.4992673, 40.623725], [29.4983615, 40.6219712], [29.4992566, 40.6192461], [29.5017457, 40.6178942], [29.5025187, 40.6166986], [29.5027218, 40.609802], [29.5018168, 40.6065144], [29.5021427, 40.6057342], [29.5002623, 40.6038356], [29.4986129, 40.6036327], [29.4981623, 40.6026634], [29.498238, 40.6004036], [29.4963065, 40.5975186], [29.4956195, 40.5942342], [29.49368, 40.5933475], [29.4928941, 40.5914007], [29.4947398, 40.5912013], [29.4954972, 40.5899203], [29.4976315, 40.58945], [29.4992815, 40.5897089], [29.4999568, 40.5890894], [29.5015204, 40.5889689], [29.5000503, 40.5879629], [29.500372, 40.587404], [29.5016277, 40.5872335], [29.5006299, 40.5860276], [29.5003295, 40.5848054], [29.5021541, 40.5831991], [29.5019985, 40.5827048], [29.4991994, 40.5813203], [29.4967922, 40.5794314], [29.4982328, 40.5794979], [29.4996214, 40.5764614], [29.4990849, 40.5744079], [29.497562, 40.5739548], [29.4948214, 40.5711295], [29.4948994, 40.5698571], [29.4941199, 40.5694799], [29.4954994, 40.5685697], [29.4930875, 40.5690455], [29.4928075, 40.5684713], [29.487486, 40.5687304], [29.4872654, 40.5676198], [29.4843864, 40.5663152], [29.4850087, 40.5657691], [29.4827596, 40.5633935], [29.4830893, 40.5623449], [29.4827771, 40.5616531], [29.4811667, 40.5603167], [29.484847, 40.5562829], [29.4917338, 40.5556367], [29.491452, 40.5551892], [29.4937171, 40.5498205], [29.4938654, 40.5472095], [29.4970464, 40.54164], [29.4966855, 40.5408463], [29.4940431, 40.5388439], [29.4937944, 40.5369132], [29.4955122, 40.5349214], [29.4960058, 40.5330378], [29.4955015, 40.5318391], [29.4959157, 40.5292941], [29.4965197, 40.5274925], [29.4978297, 40.52609], [29.4985694, 40.52354], [29.500775, 40.527177], [29.5037305, 40.5287975], [29.5044601, 40.5286996], [29.5062, 40.5299333], [29.5131135, 40.5291252], [29.5148318, 40.5295012], [29.5172065, 40.5280965], [29.5187899, 40.5260066], [29.5198972, 40.5252977], [29.5234402, 40.5250865], [29.525233, 40.5257573], [29.5255296, 40.5272843], [29.5283317, 40.5294743], [29.5301452, 40.5300239], [29.5313734, 40.5314219], [29.5347422, 40.5320377], [29.5417233, 40.5316021], [29.5435983, 40.5325479], [29.5442213, 40.5335323], [29.5458637, 40.5330425], [29.5493281, 40.5302653], [29.5528336, 40.5297586], [29.5513451, 40.5279167], [29.5524394, 40.5260656], [29.5523041, 40.5255953], [29.5527184, 40.5255926], [29.5537054, 40.5259106], [29.554081, 40.5270931], [29.5555508, 40.528088], [29.5581127, 40.5287872], [29.5586836, 40.5295151], [29.5589361, 40.5319983], [29.5579326, 40.5326546], [29.5561963, 40.5364057], [29.5584154, 40.5379057], [29.5588982, 40.5393163], [29.5603777, 40.5401194], [29.5607334, 40.5408914], [29.5616023, 40.5407522], [29.5625299, 40.5393407], [29.5644987, 40.538717], [29.5630535, 40.5381488], [29.5628997, 40.5369391], [29.5647785, 40.5363965], [29.5649117, 40.535272], [29.5660651, 40.5360507], [29.5679372, 40.5342487], [29.5716785, 40.5366833], [29.57129, 40.5384275], [29.5718586, 40.5395935], [29.5736903, 40.5383148], [29.5772616, 40.5398146], [29.579854, 40.5403148], [29.5808556, 40.5425329], [29.5803902, 40.5436167], [29.5810551, 40.5437954], [29.5842236, 40.5408369], [29.5873156, 40.5391962], [29.5874888, 40.5402261], [29.5882201, 40.5402132], [29.5883489, 40.5412323], [29.5905504, 40.5431302], [29.5918055, 40.5429565], [29.5943946, 40.5442979], [29.5965813, 40.5444399], [29.59657, 40.5434177], [29.5974514, 40.5424683], [29.5972016, 40.5412071], [29.59786, 40.542333], [29.5988037, 40.5415752], [29.5999092, 40.5427773], [29.6007673, 40.5426097], [29.5997965, 40.5409103], [29.5991342, 40.5407819], [29.5991421, 40.5402254], [29.6039915, 40.5405352], [29.6041042, 40.5414688], [29.6057242, 40.5421944], [29.6054614, 40.5431932], [29.6063251, 40.5434064], [29.6062877, 40.5427251], [29.6076071, 40.5412201], [29.6076822, 40.5417093], [29.609651, 40.5412201], [29.6109813, 40.541746], [29.6113408, 40.5414321], [29.6123707, 40.5425817], [29.6145554, 40.5423921], [29.6140444, 40.5440981], [29.6134275, 40.5443237], [29.6144521, 40.5448319], [29.6153393, 40.5434216], [29.615863, 40.5433807], [29.615872, 40.5427294], [29.6167427, 40.5425694], [29.6165711, 40.5429445], [29.6179819, 40.5430627], [29.618025, 40.5441686], [29.6168339, 40.5435478], [29.6160775, 40.5442204], [29.6170109, 40.5444365], [29.6171397, 40.545158], [29.6179825, 40.5456209], [29.6180141, 40.5446199], [29.6189636, 40.545211], [29.6213612, 40.5439622], [29.6227787, 40.544954], [29.6247553, 40.5446723], [29.6263772, 40.5461037], [29.6277612, 40.5465358], [29.6296695, 40.5502673], [29.6307962, 40.5503029], [29.6309102, 40.552059], [29.6319178, 40.5518355], [29.6325624, 40.5522139], [29.6322352, 40.5524095], [29.6332985, 40.5526356], [29.6335651, 40.5543219], [29.6353183, 40.5562193], [29.6357059, 40.555609], [29.6373859, 40.5562036], [29.6386467, 40.554331], [29.63948, 40.5543595], [29.6398025, 40.5553466], [29.6412206, 40.5551729], [29.6419662, 40.5559636], [29.6433985, 40.5582908], [29.6429753, 40.5589123], [29.6439705, 40.5617119], [29.6429318, 40.5621381], [29.6426421, 40.5632547], [29.6438652, 40.5652964], [29.6450397, 40.5653642], [29.6464758, 40.5671026], [29.6498264, 40.5686385], [29.6497178, 40.5691595], [29.6511286, 40.5689232], [29.6516637, 40.5698528], [29.6522284, 40.5695018], [29.6542078, 40.5698808], [29.654316, 40.5714702], [29.6553558, 40.5710747], [29.6560032, 40.5698627], [29.656316, 40.5703576], [29.6572584, 40.570298], [29.6569598, 40.5710299], [29.6601677, 40.5704961], [29.6618802, 40.5721542], [29.6616644, 40.5734707], [29.6636492, 40.5753491], [29.6644519, 40.5770054], [29.6681196, 40.5786148], [29.6696718, 40.5801744], [29.671849, 40.5814247], [29.6763951, 40.5831432], [29.6788632, 40.5866132], [29.6841252, 40.5897674], [29.6847269, 40.5912314], [29.6844578, 40.5919223], [29.6864194, 40.5958511], [29.6848655, 40.5998267], [29.6856755, 40.6005128], [29.6844983, 40.6012071], [29.6848406, 40.6021841], [29.686169, 40.602753], [29.6852463, 40.6033598], [29.6842539, 40.6030829], [29.6841091, 40.6025596], [29.6830564, 40.6029472], [29.682548, 40.6037875], [29.6832885, 40.6045719], [29.6833906, 40.6055796], [29.6852006, 40.6066422], [29.6865717, 40.6063812], [29.6853483, 40.6057628], [29.6853946, 40.6051221], [29.6863031, 40.6048138], [29.6864448, 40.6051791], [29.6874511, 40.6045651], [29.6969213, 40.6065703], [29.6982215, 40.6082896], [29.6993856, 40.6113023], [29.7046693, 40.6144126], [29.7052364, 40.6118137], [29.7082961, 40.6114901], [29.7147725, 40.6120203], [29.7159154, 40.6110563], [29.7193123, 40.6113937], [29.72036, 40.6104779], [29.723122, 40.6113937], [29.725122, 40.6110563], [29.7262332, 40.6115383], [29.7282015, 40.6106948], [29.7316302, 40.610261], [29.733281, 40.6106707], [29.733408, 40.6098272], [29.7350588, 40.6084534], [29.7406146, 40.606453], [29.7565833, 40.6018975], [29.7620438, 40.6010779], [29.765282, 40.5995111], [29.7663614, 40.6000656], [29.7737901, 40.5987398], [29.7764886, 40.59604], [29.7808697, 40.5950757], [29.7888382, 40.5917731], [29.7929018, 40.5913874], [29.7959813, 40.5895793], [29.8012513, 40.5880122], [29.8022989, 40.5864933], [29.806934, 40.5858665], [29.812077, 40.5843234], [29.8194106, 40.5833349], [29.8223313, 40.5842993], [29.8396016, 40.583359], [29.846586, 40.5845404], [29.8583959, 40.584227], [29.8639198, 40.5830938], [29.8681104, 40.5814301], [29.8699835, 40.581623], [29.8709994, 40.5802487], [29.8836423, 40.5731547], [29.8916525, 40.5726732], [29.8922864, 40.5731766], [29.8934678, 40.5731547], [29.8944186, 40.5724105], [29.8957741, 40.5741272], [29.9026167, 40.5707129], [29.9020893, 40.568033], [29.9059477, 40.5655353], [29.9063731, 40.5649298], [29.9064588, 40.5626557], [29.9080649, 40.5604515], [29.9082606, 40.5594293], [29.9058877, 40.5592063], [29.9050031, 40.5584435], [29.9052722, 40.5568716], [29.9083644, 40.5546294], [29.9083057, 40.5538898], [29.9100426, 40.5525886], [29.909431, 40.5519938], [29.9096297, 40.5505759], [29.9066803, 40.5528476], [29.9066069, 40.5536469], [29.9056284, 40.5538142], [29.9057017, 40.552513], [29.9049189, 40.5520669], [29.9044623, 40.5508665], [29.9033199, 40.5445484], [29.9042916, 40.5323936], [29.9052577, 40.5301248], [29.9111686, 40.5326169], [29.946739, 40.5436977], [29.9532349, 40.5469933], [29.9669815, 40.551366], [29.9754169, 40.5546043], [29.9820595, 40.5572329], [29.995241, 40.5646187], [29.9989429, 40.5662219], [30.0051703, 40.5673783], [30.011467, 40.5699013], [30.0179712, 40.5711627], [30.0309624, 40.574763], [30.0381932, 40.5781134], [30.0427946, 40.5832635], [30.0466444, 40.5899424], [30.0534242, 40.5936054], [30.0615711, 40.592494], [30.064001, 40.5934906], [30.0747298, 40.5953155], [30.093987, 40.6004078], [30.1024547, 40.601452], [30.1033973, 40.6012297], [30.1088999, 40.6053913], [30.1152167, 40.6078617], [30.1147485, 40.6086421], [30.1150059, 40.610043], [30.1172375, 40.6154347], [30.122602, 40.6152881], [30.1252627, 40.6184806], [30.1249623, 40.6196533], [30.1262888, 40.6208642], [30.1261639, 40.6220475], [30.1358308, 40.6295364], [30.1366764, 40.6322283], [30.1369348, 40.6359961], [30.14009, 40.6379741], [30.1419997, 40.64154], [30.1435884, 40.6425333], [30.1444459, 40.6446986], [30.1462483, 40.6455615], [30.1452398, 40.6465872], [30.1460981, 40.6509503], [30.1489091, 40.6524481], [30.1502609, 40.6550853], [30.1522136, 40.6566969], [30.1531577, 40.6582107], [30.1531791, 40.65922], [30.1540375, 40.6603268], [30.15378, 40.6611407], [30.1551962, 40.6626382], [30.1551103, 40.6648844], [30.1560974, 40.6656982], [30.1566553, 40.6670491], [30.1562476, 40.6692137], [30.1574063, 40.6695555], [30.1584363, 40.6717364], [30.1581573, 40.6727291], [30.1600241, 40.6758212], [30.1599812, 40.6805079], [30.158329, 40.6840552], [30.1601314, 40.6871467], [30.1606499, 40.690015], [30.1592302, 40.6895873], [30.1592302, 40.6900429], [30.1603889, 40.6904659], [30.1601314, 40.6919628], [30.1607349, 40.6923085], [30.1603695, 40.6938571], [30.1610023, 40.6950882], [30.1610891, 40.6957688], [30.1605708, 40.6960953], [30.161097, 40.6979986], [30.1592052, 40.699857], [30.158596, 40.7020114], [30.1574198, 40.7037276], [30.1559438, 40.7043546], [30.1552873, 40.7051914], [30.1552602, 40.7070241], [30.1563962, 40.7119746], [30.1632213, 40.7139559], [30.1849275, 40.7152901], [30.2621356, 40.7184167], [30.2536221, 40.7352346], [30.2535367, 40.7382748], [30.2542663, 40.7388194], [30.2537727, 40.7397462], [30.2521634, 40.7393153], [30.2518523, 40.7420873], [30.2508501, 40.7419995], [30.2498245, 40.743144], [30.250318, 40.7440382], [30.2488804, 40.7440463], [30.2490404, 40.7451716], [30.2475929, 40.7468262], [30.2436053, 40.7490481], [30.2432778, 40.7527019], [30.2419589, 40.7556523], [30.2412138, 40.7557378], [30.2446386, 40.7600693], [30.2415204, 40.7621217], [30.2432195, 40.7638378], [30.2429473, 40.7645107], [30.2446532, 40.7671841], [30.2454735, 40.7677096], [30.2444816, 40.768598], [30.2449965, 40.7689962], [30.2434623, 40.771385], [30.2433228, 40.7739931], [30.2409911, 40.7772213], [30.239203, 40.7786566], [30.2378726, 40.7790303], [30.2380335, 40.7804764], [30.2369731, 40.7828284], [30.2329774, 40.7825402], [30.2296114, 40.7840022], [30.2276909, 40.7837341], [30.2273293, 40.7830415], [30.2266395, 40.784579], [30.2243385, 40.7859645], [30.2241933, 40.7866748], [30.223335, 40.7866992], [30.2216566, 40.7890334], [30.2190898, 40.7906055], [30.2169312, 40.7946681], [30.2181744, 40.7958048], [30.2184082, 40.7969353], [30.2189648, 40.7968961], [30.2181918, 40.798053], [30.2199404, 40.7986337], [30.2208674, 40.8005642], [30.2234101, 40.802286], [30.2230403, 40.8028477], [30.2237105, 40.8029194], [30.2245581, 40.8039184], [30.2270093, 40.8036368], [30.2220618, 40.8067503], [30.2217797, 40.808767], [30.2185838, 40.8103974], [30.2171146, 40.8126159], [30.2170139, 40.8154848], [30.2159643, 40.815758], [30.2156787, 40.8164409], [30.2161145, 40.8166755], [30.2156377, 40.817178], [30.2175629, 40.8185836], [30.2154008, 40.8207378], [30.2175791, 40.8217316], [30.2167055, 40.8236648], [30.2172327, 40.8276981], [30.2207398, 40.8279143], [30.2213287, 40.8300635], [30.2221334, 40.8301284], [30.223811, 40.8319978], [30.2251587, 40.8356806], [30.2249855, 40.8367034], [30.2268738, 40.836779], [30.2268863, 40.8346865], [30.2278367, 40.835325], [30.227884, 40.8361273], [30.2291349, 40.83803], [30.2297393, 40.8381631], [30.2301156, 40.8420851], [30.2290749, 40.8477989], [30.2298975, 40.8474867], [30.2313058, 40.8483577], [30.2321357, 40.8475841], [30.2350658, 40.8477105], [30.2360248, 40.8468095], [30.2380401, 40.846285], [30.2375672, 40.8452581], [30.2386987, 40.8444551], [30.2404161, 40.8458416], [30.2420132, 40.844945], [30.2436188, 40.8447428], [30.2448347, 40.8457315], [30.2481462, 40.8444882], [30.2523887, 40.8466465], [30.2523348, 40.8470702], [30.2531285, 40.8474933], [30.2554893, 40.8470198], [30.2550453, 40.8458205], [30.256884, 40.8456129], [30.2570564, 40.8477919], [30.2556595, 40.8511974], [30.2564967, 40.8511706], [30.2565819, 40.8536221], [30.2551947, 40.8539778], [30.2547504, 40.8560978], [30.2532311, 40.8565635], [30.252737, 40.8576081], [30.2550358, 40.8597305], [30.258065, 40.8586567], [30.2587938, 40.8594766], [30.2578314, 40.8602624], [30.261755, 40.8615213], [30.26595, 40.8655377], [30.2674976, 40.8658663], [30.2668479, 40.8680128], [30.2661633, 40.867989], [30.2647635, 40.8712507], [30.2638603, 40.8712608], [30.2629217, 40.8728639], [30.2621138, 40.8725587], [30.2611585, 40.8751057], [30.2595056, 40.8764057], [30.259296, 40.8784843], [30.2577102, 40.8798162], [30.2596521, 40.8827527], [30.259459, 40.8838964], [30.2581501, 40.8852591], [30.2584612, 40.8866973], [30.2569381, 40.8883733], [30.2503281, 40.8921254], [30.2465951, 40.8934347], [30.2404173, 40.8942114], [30.2361035, 40.8953435], [30.2339102, 40.8934647], [30.233461, 40.8949739], [30.2337634, 40.8958028], [30.2331841, 40.8967193], [30.2343428, 40.8994036], [30.2346003, 40.9013336], [30.240419, 40.9056005], [30.2476358, 40.9072774], [30.2504039, 40.9074639], [30.2510905, 40.908368], [30.2515117, 40.9080155], [30.2540624, 40.9080153], [30.254277, 40.9074639], [30.2562511, 40.9074315], [30.2628761, 40.9058503], [30.2640939, 40.905007], [30.2639329, 40.904488], [30.2648417, 40.9044294], [30.2666473, 40.9030527], [30.2670121, 40.901212], [30.2685678, 40.9003929], [30.2691686, 40.8991846], [30.2706921, 40.8988764], [30.2702951, 40.8983574], [30.2708959, 40.8973599], [30.2715504, 40.8970923], [30.2721146, 40.8975305], [30.2753377, 40.8958515], [30.2784491, 40.8951459], [30.2790391, 40.894562], [30.2815282, 40.8941078], [30.2831268, 40.8932644], [30.2866351, 40.8930049], [30.2909374, 40.8918735], [30.2904439, 40.8932482], [30.2908922, 40.8953284], [30.2925453, 40.8950437], [30.2932227, 40.8973356], [30.2938235, 40.897514], [30.2937484, 40.8988927], [30.2922356, 40.8993387], [30.2924287, 40.8998658], [30.293051, 40.9001821], [30.2941131, 40.902477], [30.2954275, 40.9026513], [30.2955186, 40.9030284], [30.2943277, 40.9030933], [30.2917099, 40.9046421], [30.2917072, 40.908077], [30.2906048, 40.9090613], [30.2903416, 40.9100766], [30.2906735, 40.9106337], [30.2896929, 40.9110559], [30.2891387, 40.9119197], [30.2825269, 40.9118063], [30.2819482, 40.915739], [30.2806316, 40.9177009], [30.2745277, 40.9175623], [30.2749624, 40.9188741], [30.276829, 40.9189648], [30.2772474, 40.9199904], [30.2787602, 40.9200228], [30.2789962, 40.9208659], [30.2806163, 40.9215388], [30.2803373, 40.923071], [30.2807665, 40.9233385], [30.2798974, 40.9233385], [30.2790821, 40.9240275], [30.2790316, 40.9248088], [30.2814317, 40.9255515], [30.2817106, 40.9248544], [30.282644, 40.9253002], [30.2843499, 40.9265972], [30.2840978, 40.92772], [30.2850044, 40.9278213], [30.2850795, 40.9271525], [30.2868265, 40.9274405], [30.2878797, 40.9277645], [30.2876544, 40.92864], [30.2881479, 40.9287292], [30.2892637, 40.9281941], [30.295304, 40.9277726], [30.2918333, 40.9297302], [30.2902615, 40.9301071], [30.2852297, 40.9337303], [30.2850683, 40.9342695], [30.2806699, 40.9358619], [30.2773337, 40.9385348], [30.2772689, 40.9397239], [30.2796096, 40.9428621], [30.2793664, 40.944694], [30.2803051, 40.9448498], [30.281961, 40.9473447], [30.2836043, 40.9486585], [30.2851892, 40.9488171], [30.284637, 40.9498461], [30.2831141, 40.9490903], [30.2822261, 40.9507855], [30.2825689, 40.9521834], [30.2854121, 40.9525724], [30.2904634, 40.9555597], [30.2880889, 40.9572314], [30.2880124, 40.9588762], [30.2841235, 40.9590862], [30.2852848, 40.9577119], [30.2844064, 40.9577794], [30.2838457, 40.9570127], [30.2808201, 40.9572476], [30.2790869, 40.9568212], [30.2788136, 40.9560401], [30.2774727, 40.9562632], [30.2781132, 40.958886], [30.2767646, 40.9588762], [30.2765608, 40.959735], [30.2772805, 40.9646647], [30.2765715, 40.9671156], [30.2768183, 40.9680635], [30.2719828, 40.9716584], [30.2720029, 40.973567], [30.2713412, 40.9741147], [30.2695049, 40.9727934], [30.2698767, 40.9728267], [30.2703595, 40.9708502], [30.2690506, 40.9698416], [30.2676802, 40.9707969], [30.2670336, 40.9719762], [30.2670955, 40.9756594], [30.2652687, 40.9751434], [30.2654564, 40.9754026], [30.2641875, 40.975468], [30.2637505, 40.9768444], [30.2616906, 40.9778002], [30.2609588, 40.9786303], [30.2605641, 40.9783429], [30.2604031, 40.9806351], [30.2599311, 40.9810482], [30.2610147, 40.9825952], [30.2608323, 40.9844337], [30.2603741, 40.9848649], [30.2608216, 40.9859928], [30.2606285, 40.9870051], [30.2586953, 40.9868532], [30.2586543, 40.9861183], [30.2577639, 40.9862155], [30.2542341, 40.9841259], [30.2510442, 40.9828782], [30.2486122, 40.9802545], [30.2482214, 40.977863], [30.2462465, 40.9778448], [30.2453838, 40.9767201], [30.2442777, 40.9776625], [30.2393103, 40.9786912], [30.2386545, 40.9798312], [30.2373469, 40.9800115], [30.2366173, 40.9808538], [30.2371752, 40.9815666], [30.2368319, 40.982336], [30.2376151, 40.9848144], [30.2370787, 40.9856567], [30.2379537, 40.9883081], [30.2375507, 40.9892444], [30.2378726, 40.9902324], [30.2355726, 40.9928976], [30.2365744, 40.993091], [30.2379048, 40.9942814], [30.2385398, 40.9962624], [30.2374005, 40.9991724], [30.2365943, 40.9999749], [30.2366871, 41.0009983], [30.2341236, 41.0035496], [30.235008, 41.0052369], [30.2333772, 41.0057713], [30.2324975, 41.007596], [30.2308559, 41.0082569], [30.2314031, 41.0091474], [30.2311817, 41.010378], [30.2301907, 41.0109528], [30.2291393, 41.0131225], [30.2269149, 41.0152916], [30.2282335, 41.0196134], [30.2289355, 41.0197119], [30.2308345, 41.0183439], [30.2352076, 41.0195983], [30.2364454, 41.021076], [30.2368641, 41.0231602], [30.2383017, 41.0241072], [30.2399433, 41.0244633], [30.2421319, 41.0263088], [30.2428222, 41.0281281], [30.2435589, 41.0286884], [30.2445662, 41.0290573], [30.2459085, 41.0286884], [30.2456081, 41.0271748], [30.246048, 41.0270372], [30.2497288, 41.0311355], [30.2501678, 41.0359965], [30.2508935, 41.0374251], [30.2551567, 41.0377121], [30.2585513, 41.0387825], [30.2577915, 41.0399548], [30.2596736, 41.0396624], [30.2600276, 41.0386104], [30.2616477, 41.0378902], [30.2614868, 41.039104], [30.2597379, 41.0409571], [30.2580535, 41.044024], [30.2573315, 41.0466946], [30.2644868, 41.0481391], [30.2661905, 41.0509854], [30.2629995, 41.0521557], [30.262742, 41.0518725], [30.2609932, 41.0532803], [30.256294, 41.054235], [30.2539873, 41.0556346], [30.2554289, 41.0575496], [30.2543199, 41.0599062], [30.2542448, 41.0626], [30.2529048, 41.0646589], [30.2522385, 41.0681087], [30.2504468, 41.0693058], [30.2503757, 41.0699813], [30.2482581, 41.0718618], [30.2478719, 41.073164], [30.2472711, 41.0734794], [30.2472711, 41.0752831], [30.2460158, 41.0766984], [30.245651, 41.0802974], [30.2439562, 41.0821666], [30.2443957, 41.0845673], [30.2440309, 41.0851657], [30.2445459, 41.0854569], [30.246681, 41.0848099], [30.250597, 41.08519], [30.2540517, 41.0848261], [30.2548349, 41.0852304], [30.2577873, 41.0852566], [30.2577843, 41.0869657], [30.2620164, 41.0864199], [30.2619803, 41.0886106], [30.2625062, 41.0897973], [30.2653706, 41.0899771], [30.2663147, 41.0904946], [30.271684, 41.0906466], [30.2816357, 41.0890074], [30.2819037, 41.0896456], [30.2824616, 41.0896537], [30.2828972, 41.0908403], [30.2860727, 41.0925744], [30.2870965, 41.0946992], [30.2910125, 41.0961061], [30.2907443, 41.0968742], [30.291506, 41.0969066], [30.2913237, 41.0975695], [30.2927935, 41.0997282], [30.2934771, 41.0997545], [30.2937913, 41.1008682], [30.2956181, 41.1020632], [30.2955557, 41.1027919], [30.3008436, 41.1064926], [30.3034808, 41.1073112], [30.3057861, 41.1092596], [30.3053033, 41.1094456], [30.3059578, 41.110844], [30.3066552, 41.1111755], [30.3066347, 41.1125181], [30.3087902, 41.1126628], [30.3097772, 41.1138914], [30.3107536, 41.1139965], [30.3119576, 41.1153241], [30.3124273, 41.115306], [30.3126204, 41.1168902], [30.3148949, 41.1173024], [30.3144979, 41.1179895], [30.3147769, 41.1184098], [30.3171265, 41.1199939], [30.3211049, 41.1210797], [30.3233694, 41.1228533], [30.3271867, 41.1386428], [30.3259469, 41.1427659], [30.3275227, 41.1449476], [30.3286171, 41.1450123], [30.3283816, 41.14657], [30.3294003, 41.1510149], [30.3321701, 41.1556247], [30.3396785, 41.1621139], [30.3434753, 41.1630045], [30.3487509, 41.1654214], [30.3521511, 41.1655763], [30.3559005, 41.1649651], [30.365706, 41.1684112], [30.3657536, 41.1711221], [30.3645411, 41.1724481], [30.3626427, 41.1732439], [30.3622198, 41.1738249], [30.3624819, 41.1745175], [30.3659938, 41.1776929], [30.5117269, 41.351], [30.5006993, 41.357], [30.4883335, 41.363], [30.4552221, 41.377], [30.4331309, 41.385], [30.4119417, 41.391], [30.377569, 41.398], [30.3514062, 41.406], [30.3235176, 41.412], [30.310325, 41.414], [30.2910614, 41.416], [30.2676221, 41.417], [30.2547673, 41.417], [30.231328, 41.416], [30.2204211, 41.415], [30.1933153, 41.411], [30.179087, 41.408], [30.1636468, 41.404], [30.1476946, 41.399], [30.1366929, 41.395], [30.113648, 41.385], [30.101986, 41.379], [30.0866673, 41.37], [30.0733878, 41.361], [30.0641983, 41.354], [30.0472285, 41.339], [29.9982909, 41.339], [29.9518689, 41.341], [29.9380986, 41.342], [29.918147, 41.14146], [29.9140978, 41.1403423], [29.9151222, 41.135992], [29.9145913, 41.1259019], [29.9121276, 41.1226377], [29.9095273, 41.1210487], [29.910114, 41.1200655], [29.9096302, 41.1194186], [29.9117048, 41.1190109], [29.913596, 41.1208187], [29.9144608, 41.1200708], [29.9140549, 41.1200505], [29.9144005, 41.1195888], [29.9138725, 41.118632], [29.9114513, 41.1183865], [29.91207, 41.1160456], [29.9139208, 41.1150231], [29.9133575, 41.114239], [29.9146771, 41.1139521], [29.914366, 41.1132205], [29.9150956, 41.1119434], [29.9144465, 41.1110057], [29.9157017, 41.1099912], [29.9149185, 41.1092596], [29.915235, 41.1088029], [29.9149132, 41.1084553], [29.9141461, 41.1089686], [29.9130249, 41.1077197], [29.913098, 41.1064095], [29.9134433, 41.1055127], [29.9144894, 41.1058603], [29.9141782, 41.1049266], [29.9149078, 41.1052783], [29.9166942, 41.10487], [29.914999, 41.1040373], [29.915632, 41.1029702], [29.9150097, 41.1010461], [29.9162324, 41.1000831], [29.9183638, 41.0992309], [29.9265754, 41.0985802], [29.9285222, 41.0969988], [29.9318218, 41.0980951], [29.9358378, 41.0984051], [29.9395251, 41.0974483], [29.9435943, 41.0974652], [29.9460015, 41.0993006], [29.9489605, 41.0998582], [29.9549532, 41.0987095], [29.9571262, 41.0952417], [29.9588048, 41.0944648], [29.9585879, 41.0923244], [29.9561217, 41.0894418], [29.9578071, 41.0866213], [29.9578214, 41.0855355], [29.957056, 41.0845511], [29.9576783, 41.0840012], [29.9565625, 41.0834918], [29.9550497, 41.0837101], [29.9542357, 41.0821156], [29.9545133, 41.0800952], [29.95152, 41.0810899], [29.9504646, 41.0820758], [29.9454582, 41.0826831], [29.9439347, 41.0836454], [29.9439347, 41.0850202], [29.9413276, 41.0850202], [29.9414134, 41.0840012], [29.94109, 41.0840125], [29.9384585, 41.0860364], [29.9361086, 41.0868776], [29.9335058, 41.0868003], [29.9313899, 41.087786], [29.9289909, 41.0877125], [29.9283242, 41.0869124], [29.9277341, 41.0871469], [29.9278371, 41.0864483], [29.9241521, 41.0869681], [29.9227387, 41.0879647], [29.9189168, 41.0883118], [29.9173579, 41.0890509], [29.9168631, 41.0886483], [29.9146664, 41.0898801], [29.91413, 41.0897669], [29.9142051, 41.0893464], [29.9151599, 41.0887723], [29.9141589, 41.0888244], [29.9131751, 41.0898073], [29.9128747, 41.0889987], [29.9118086, 41.0889563], [29.9115443, 41.0896375], [29.910332, 41.0891038], [29.9109971, 41.0889987], [29.9113512, 41.0882143], [29.9107692, 41.0879805], [29.9086075, 41.0890276], [29.9072455, 41.0906443], [29.9036264, 41.0914407], [29.9038088, 41.0917641], [29.9003367, 41.0908989], [29.8915028, 41.0929597], [29.8929191, 41.0896941], [29.8921895, 41.0881416], [29.8922324, 41.0870418], [29.8913741, 41.0868963], [29.8925543, 41.0856752], [29.8914921, 41.085004], [29.8905694, 41.0833624], [29.8909982, 41.0827078], [29.8892712, 41.0823596], [29.8876083, 41.0802084], [29.8869006, 41.0804381], [29.8879838, 41.0776447], [29.8889046, 41.0776029], [29.8888534, 41.0757433], [29.8927045, 41.0707537], [29.8920929, 41.0702684], [29.8924255, 41.069686], [29.8917828, 41.0675748], [29.8928225, 41.0639267], [29.8914465, 41.0625703], [29.8900545, 41.0634009], [29.8894398, 41.0628339], [29.8871367, 41.0631993], [29.8879516, 41.0598738], [29.8869974, 41.0581555], [29.8824692, 41.0560149], [29.8810408, 41.054389], [29.8809028, 41.053612], [29.8816109, 41.0524389], [29.8803929, 41.0511749], [29.8813223, 41.0494249], [29.8800015, 41.0469693], [29.8804294, 41.0419671], [29.8791861, 41.0407468], [29.877963, 41.0405202], [29.8721051, 41.0406335], [29.8708268, 41.0410528], [29.8684617, 41.0402864], [29.8678136, 41.0375584], [29.8637715, 41.0355016], [29.8635864, 41.033253], [29.8626423, 41.0326056], [29.8622285, 41.0308556], [29.857986, 41.0285589], [29.8545742, 41.0283808], [29.8518598, 41.0268268], [29.8507333, 41.0249652], [29.8484158, 41.0235568], [29.8482871, 41.0227797], [29.8453259, 41.0202219], [29.8418498, 41.020999], [29.8409454, 41.0208051], [29.8394794, 41.0184287], [29.8368806, 41.0173766], [29.8361635, 41.0177611], [29.8350048, 41.0173887], [29.8340821, 41.0163849], [29.8347909, 41.0158392], [29.8320436, 41.0146768], [29.8287713, 41.0148873], [29.8265547, 41.0132711], [29.8243189, 41.0141587], [29.8227533, 41.0132347], [29.8192679, 41.0149915], [29.8172593, 41.0151139], [29.8160899, 41.0144663], [29.8138047, 41.0146239], [29.8115623, 41.0162877], [29.8110044, 41.0180929], [29.8086226, 41.0201895], [29.8084416, 41.0196776], [29.8042774, 41.01955], [29.8002756, 41.0207076], [29.7959304, 41.0199628], [29.7942568, 41.0190777], [29.7934091, 41.02006], [29.7914994, 41.0192424], [29.7899605, 41.0202581], [29.785734, 41.0215493], [29.7849979, 41.023886], [29.7819955, 41.0255956], [29.7804656, 41.0254276], [29.7783629, 41.0273877], [29.7712369, 41.0252479], [29.7649673, 41.0254778], [29.7645592, 41.0268349], [29.7611368, 41.0271748], [29.7590232, 41.0272396], [29.7563504, 41.026561], [29.7536909, 41.0277333], [29.7506118, 41.0319905], [29.7473717, 41.0333178], [29.746397, 41.0343493], [29.7449933, 41.0347657], [29.7426057, 41.0341602], [29.7421253, 41.0350254], [29.7406554, 41.035956], [29.73881, 41.0358427], [29.7375071, 41.0346416], [29.7364282, 41.0348392], [29.7369003, 41.0356647], [29.7363424, 41.0371376], [29.7365355, 41.0404878], [29.7360076, 41.0413404], [29.7324291, 41.0421757], [29.7298193, 41.0411028], [29.7288792, 41.0388905], [29.7269378, 41.0366832], [29.7262573, 41.0345722], [29.7235751, 41.0325408], [29.7230435, 41.0315198], [29.7214007, 41.0311637], [29.7180304, 41.0317493], [29.7184038, 41.0309707], [29.7171378, 41.029692], [29.7175669, 41.029174], [29.71879, 41.029352], [29.718318, 41.0285103], [29.7188115, 41.0280085], [29.7181463, 41.0275067], [29.7137447, 41.0299411], [29.7072673, 41.0319743], [29.7044201, 41.0344787], [29.7044336, 41.0317702], [29.7057795, 41.0298846], [29.7058285, 41.0286119], [29.6998891, 41.0283644], [29.6993708, 41.0270858], [29.6996283, 41.0266325], [29.6975469, 41.0256937], [29.6961522, 41.0244148], [29.6964097, 41.0226179], [29.6971607, 41.0210152], [29.6985984, 41.0201571], [29.7022247, 41.0163039], [29.7045851, 41.0161259], [29.7051465, 41.0156243], [29.7070741, 41.0126125], [29.7100138, 41.0116086], [29.7134762, 41.0127571], [29.7142408, 41.0111673], [29.7174335, 41.0097148], [29.7189464, 41.0084263], [29.7194809, 41.0077415], [29.7182134, 41.0052703], [29.7180605, 41.002897], [29.7116905, 41.002111], [29.7120523, 41.0011319], [29.7116573, 41.0004562], [29.7106361, 41.0000307], [29.7062573, 40.9961338], [29.7031255, 40.9946586], [29.7008315, 40.990049], [29.6920094, 40.9887823], [29.6910154, 40.9845285], [29.6894038, 40.9847374], [29.6883792, 40.9839073], [29.6907127, 40.9823684], [29.6910721, 40.9813398], [29.6896344, 40.9796308], [29.6876174, 40.9799264], [29.6860134, 40.9795984], [29.6838077, 40.9770912], [29.6833044, 40.9710446], [29.6829182, 40.970915], [29.6834981, 40.9699632], [29.6791363, 40.966022], [29.6766905, 40.9644098], [29.6747911, 40.9644584], [29.673906, 40.9650295], [29.6731979, 40.9644948], [29.6718621, 40.9647986], [29.6716958, 40.966427], [29.6687937, 40.9649607], [29.6686649, 40.964029], [29.6670855, 40.9634112], [29.6665406, 40.9637252], [29.6651673, 40.9634335], [29.6638584, 40.9617767], [29.6630752, 40.9619185], [29.6623349, 40.9633566], [29.6601784, 40.9632674], [29.6601248, 40.9626679], [29.6587998, 40.9628178], [29.6589017, 40.9633404], [29.6574211, 40.9639075], [29.6556294, 40.9640614], [29.6553022, 40.9672655], [29.6543688, 40.9683186], [29.6521184, 40.968665], [29.6517777, 40.9694042], [29.6494978, 40.9685617], [29.6483499, 40.9687075], [29.6465635, 40.9701616], [29.6419716, 40.9708745], [29.633646, 40.9709717], [29.6210235, 40.9762167], [29.6196556, 40.9781566], [29.6143234, 40.9799872], [29.6136477, 40.9812279], [29.6109223, 40.9799791], [29.6069312, 40.9812588], [29.605, 40.9839478], [29.6048713, 40.9861507], [29.6068668, 40.9907831], [29.6103859, 40.9924675], [29.6112442, 41.0003707], [29.610175, 41.0063767], [29.6090915, 41.0074019], [29.605375, 41.0054929], [29.6034227, 41.0070053], [29.6001573, 41.0035061], [29.5989275, 41.0033666], [29.6001076, 41.0046297], [29.6010196, 41.0076335], [29.6002364, 41.0088884], [29.6001291, 41.0104428], [29.6002793, 41.0108557], [29.6013016, 41.0109379], [29.6010625, 41.0119891], [29.6018565, 41.0124748], [29.6011376, 41.0133977], [29.5997223, 41.0179866], [29.5975756, 41.0195581], [29.5971894, 41.0205133], [29.5981765, 41.0219541], [29.5988095, 41.0252566], [29.5997643, 41.0256936], [29.6002632, 41.026565], [29.5973308, 41.0288959], [29.5935998, 41.028816], [29.5923546, 41.0302994], [29.5888435, 41.0313715], [29.5779985, 41.0325632], [29.5762833, 41.0343726], [29.5748491, 41.0344288], [29.5745194, 41.0353304], [29.5738133, 41.0347137], [29.5743591, 41.0337826], [29.5735003, 41.0327495], [29.5716356, 41.0335208], [29.5705148, 41.0331907], [29.5665838, 41.034576], [29.5614128, 41.0378613], [29.5580567, 41.0392344], [29.5567856, 41.0382356], [29.5534896, 41.0388933], [29.5518154, 41.0359204], [29.5507902, 41.0353979], [29.5467789, 41.0370303], [29.5454849, 41.037078], [29.5444479, 41.0354441], [29.5435665, 41.0355389], [29.5424802, 41.0370316], [29.5386128, 41.0368198], [29.5367735, 41.0354627], [29.5373054, 41.0331447], [29.5319957, 41.0341101], [29.5303126, 41.0334078], [29.530487, 41.0319213], [29.5281986, 41.0316644], [29.5270694, 41.0322292], [29.5270863, 41.0337893], [29.5257421, 41.0342647], [29.5272179, 41.0362283], [29.5248297, 41.0375592], [29.5231215, 41.0399787], [29.5235461, 41.0407742], [29.5224649, 41.042129], [29.5208967, 41.0415777], [29.5175406, 41.0440465], [29.5127049, 41.0422962], [29.5115335, 41.0400558], [29.5098677, 41.0416877], [29.5086371, 41.041655], [29.5079668, 41.0401519], [29.5079255, 41.0362312], [29.5053291, 41.0336577], [29.5028489, 41.0320641], [29.5018537, 41.0319922], [29.5001023, 41.026403], [29.5008123, 41.0220674], [29.4991814, 41.0200491], [29.4997716, 41.0190481], [29.4996757, 41.0176734], [29.4978726, 41.0157616], [29.49548, 41.0147011], [29.4936669, 41.0123696], [29.4928193, 41.0099004], [29.4931495, 41.0081727], [29.4974386, 41.0043464], [29.4994712, 41.0037067], [29.4999325, 41.0026541], [29.5017457, 41.0009537], [29.5025819, 41.0004531], [29.5054562, 41.000198], [29.5062518, 40.9994234], [29.5053575, 40.9976425], [29.5067024, 40.9952451], [29.5054282, 40.9944435], [29.5063162, 40.9894792], [29.5059007, 40.9878684], [29.5047605, 40.9870092], [29.5008109, 40.9867665], [29.4956542, 40.981508], [29.4894451, 40.9768514], [29.4841718, 40.9752001], [29.4812186, 40.9696018], [29.4847298, 40.9687602], [29.4849925, 40.9675397], [29.4844878, 40.9650425], [29.4828844, 40.9626274], [29.4790309, 40.9619014], [29.4797393, 40.9605856], [29.4790309, 40.9579604], [29.4772196, 40.9593461], [29.4756102, 40.9594596], [29.4733035, 40.9575069], [29.4708896, 40.9542254], [29.4696772, 40.9533098], [29.4699567, 40.9516608], [29.4666221, 40.9516416], [29.4632713, 40.950964], [29.4603496, 40.9531648], [29.4577739, 40.954286], [29.4549894, 40.9542659], [29.4543278, 40.951807], [29.4519701, 40.9475126], [29.4430685, 40.944275], [29.4388309, 40.9411432], [29.4389422, 40.9397533], [29.4372225, 40.9388202], [29.4370782, 40.9381046], [29.4395214, 40.9364854], [29.4381097, 40.9345453], [29.438274, 40.9339374], [29.4419688, 40.9336088], [29.4421107, 40.9331183], [29.4411679, 40.9276389], [29.4419864, 40.9226802], [29.4417412, 40.9200553], [29.4436276, 40.9178015], [29.4437379, 40.9161315], [29.4469191, 40.9167552], [29.4478329, 40.9156253], [29.4497593, 40.9160334], [29.450264, 40.9153664], [29.452107, 40.9172908], [29.4540667, 40.9152152], [29.4552662, 40.9129768], [29.4564576, 40.9126028], [29.4534255, 40.9091901], [29.4495664, 40.9061379], [29.4480006, 40.9060737], [29.4468593, 40.9054887], [29.4450545, 40.9031744], [29.4450029, 40.9024224], [29.4421303, 40.9004758], [29.4356561, 40.8993062], [29.4220078, 40.8992227], [29.4166207, 40.898283], [29.4150258, 40.8953694], [29.4154339, 40.8891208], [29.4135547, 40.886492], [29.4138443, 40.8825336], [29.4132882, 40.8811364], [29.4140375, 40.8791754], [29.4099318, 40.8797872], [29.4079738, 40.8795683], [29.4069332, 40.8800688], [29.4035705, 40.8797887], [29.4012574, 40.8790837], [29.3997386, 40.8777976], [29.396453, 40.876355], [29.3793144, 40.8722799], [29.3746358, 40.8683166], [29.3731107, 40.8666904], [29.3728495, 40.8653511], [29.3711919, 40.8638663], [29.3695272, 40.8641103], [29.3672366, 40.8625442], [29.3666626, 40.8592742], [29.3644095, 40.8590876], [29.366085, 40.8559704], [29.3677169, 40.8562327], [29.3680846, 40.855846], [29.3629726, 40.8518765], [29.3616071, 40.8491162], [29.3629752, 40.8490411], [29.3682668, 40.8399838], [29.3711445, 40.8377785], [29.36935, 40.8334827], [29.3663369, 40.8311551], [29.3662767, 40.8294761], [29.3652749, 40.827882], [29.3641731, 40.8271147], [29.3634146, 40.8236905], [29.3643388, 40.8230032], [29.3636589, 40.8196612], [29.3642175, 40.8189761], [29.3630403, 40.817093], [29.3622896, 40.8164292], [29.3566619, 40.8210011], [29.3498691, 40.8244937], [29.3427362, 40.8139282], [29.3420268, 40.8138552], [29.3417451, 40.8122741], [29.3391181, 40.8097985], [29.3273099, 40.8047062], [29.316089, 40.787562], [29.3157266, 40.7376735]]]}}]}